[{"OBJECT_NAME":"ONEWEB-0708","OBJECT_ID":"2024-188V","EPOCH":"2026-01-02T05:39:41.793696","MEAN_MOTION":13.10375994,"ECCENTRICITY":0.00020072,"INCLINATION":87.8794,"RA_OF_ASC_NODE":69.3643,"ARG_OF_PERICENTER":116.4535,"MEAN_ANOMALY":243.6798,"EPHEMERIS_TYPE":0,"CLASSIFICATION_TYPE":"U","NORAD_CAT_ID":61613,"ELEMENT_SET_NO":999,"REV_AT_EPOCH":6156,"BSTAR":0.0013167056,"MEAN_MOTION_DOT":4.72e-6,"MEAN_MOTION_DDOT":0}]
