ONEWEB-0708             
1 61613U 24188V   26002.23590039  .00000472  00000+0  13167-2 0  9993
2 61613  87.8794  69.3643 0002007 116.4535 243.6798 13.10375994 61566
